locator_domain,location_name,street_address,city,state,zip,country_code,store_number,phone,location_type,latitude,longitude,hours_of_operation
https://beachhutdeli.com/locations/results/?state=ca,auburn-grass-valley,4035 Grass Valley Highway,Auburn,CA,95602,US,02,(530) 889-8486,<MISSING>,38.9578824,-121.1024929,"Mon-Fri: 10 am-8 pm
Sat: 10 am-7 pm
Sun: 10 am-6 pm"
https://beachhutdeli.com/locations/results/?state=ca,auburn-bowman-ca,13471 Bowman Rd,Auburn,CA,95603,US,38,(530) 878-5333,<MISSING>,38.9268972,-121.0570684,"Mon-Fri: 10 am-8 pm
Sat: 10 am-7 pm
Sun: 10 am-6 pm"
https://beachhutdeli.com/locations/results/?state=ca,brentwood,2540 Sand Creek Rd Ste A-5,Brentwood,CA,94513,US,22,(925) 634-5600,<MISSING>,37.9432139,-121.7382976,"Mon-Sat: 10 am-8 pm
Sun: 11 am-7 pm"
https://beachhutdeli.com/locations/results/?state=ca,chico,146 W. 2nd St.,Chico,CA,95928,US,11,(530) 893-0633,<MISSING>,39.7299807,-121.841296,"Mon-Sat: 10 am-8 pm
Sun: 11 am-7 pm"
https://beachhutdeli.com/locations/results/?state=ca,citrus-heights,6406 Sunrise Blvd. Ste. B,Citrus Heights,CA,95610,US,15,(916) 722-2437,<MISSING>,38.6826331,-121.2733763,"Mon-Fri: 10 am-8 pm
Sat: 10 am-5 pm 
Sun: 11 am-5 pm"
https://beachhutdeli.com/locations/results/?state=ca,colfax,555 S Auburn St. Suite B,Colfax,CA,95713,US,47,(530) 512-5081,<MISSING>,39.0935887,-120.9513725,Mon-Sun: 10 am-8 pm
https://beachhutdeli.com/locations/results/?state=ca,dana-point,2 Ritz Carlton Dr. & PCH,Dana Point,CA,92629,US,32,(949) 542-3351,<MISSING>,33.4788543,-117.7186015,"Mon-Sat: 10 am-8 pm
Sun: 10 am-7 pm"
https://beachhutdeli.com/locations/results/?state=ca,davis,4515 Fermi Place,Davis,CA,95618,US,19,(530) 756-1601,<MISSING>,38.553408,-121.6975102,"Sun: 11 am-8 pm
Mon-Wed:  10 am-8 pm
Thurs-Sat: 10 am-9 pm"
https://beachhutdeli.com/locations/results/?state=ca,el-dorado-hills,3955 Park Drive #2,El Dorado Hills,CA,95762,US,05,(916) 941-3905,<MISSING>,38.6549751,-121.0687134,"Mon-Fri: 10 am-8 pm
Sat: 10 am-5 pm
Sun: 11 am-5 pm"
https://beachhutdeli.com/locations/results/?state=ca,elk-grove,7119 Elk Grove Blvd Ste #135,Elk Grove,CA,95758,US,07,(916) 691-4028,<MISSING>,38.4100107,-121.4194964,"Mon-Fri: 10 am-8 pm 
Sat: 10 am-5 pm
Sun: 11 am-5 pm"
https://beachhutdeli.com/locations/results/?state=ca,folsom,411 Blue Ravine Road #400,Folsom,CA,95630,US,13,(916) 983-0900,<MISSING>,38.6700434,-121.1523124,"Mon-Fri: 10 am-8 pm
Sat: 10 am-5 pm
Sun: 11 am-5 pm"
https://beachhutdeli.com/locations/results/?state=ca,gold-river,2095 Golden Centre Lane Ste. 30,Gold River,CA,95670,US,23,(916) 859-0035,<MISSING>,38.6267764,-121.2636379,"Mon-Fri: 10 am-7 pm
Sat: 10 am-5 pm
Sun: 11 am-5 pm"
https://beachhutdeli.com/locations/results/?state=ca,granite-bay,6823 Douglas Blvd,Granite Bay,CA,95746,US,00,(916) 791-3130,<MISSING>,38.7439922,-121.1733875,"Mon-Fri: 10 am-8 pm 
Sat-Sun: 10 am-7 pm "
https://beachhutdeli.com/locations/results/?state=ca,grass-valley,522 Sutton Way,Grass Valley,CA,95945,US,18,(530) 477-5151,<MISSING>,39.2320525,-121.0366619,"Mon-Sat: 10 am-7 pm
Sun: 11 am-5 pm"
https://beachhutdeli.com/locations/results/?state=ca,huntington-beach,19025 Beach Blvd,Huntington Beach,CA,92648,US,30,(714) 841-7609,<MISSING>,33.6863353,-117.9888756,"Mon, Thurs, Sat: 10 am-10 pm 
Wed & Sun: 10 am-9 pm
Fri: 10 am-Midnight "
https://beachhutdeli.com/locations/results/?state=ca,lincoln,"110 Gateway Dr., #150",Lincoln,CA,95648,US,06,(916) 543-0101,<MISSING>,38.8847997,-121.2929483,"Mon-Sat: 9 am-9 pm
Sun: 10 am-9 pm"
https://beachhutdeli.com/locations/results/?state=ca,livermore,1770 First St.,Livermore,CA,94550,US,52,925-292-1547,<MISSING>,37.6802695,-121.7765875,"Sun- Wed: 10 am-8 pm
Thurs-Sat: 10 am-9 pm"
https://beachhutdeli.com/locations/results/?state=ca,los-osos,1240 Los Osos Valley Rd. #5,Los Osos,CA,93402,US,40,(805) 439-3415,<MISSING>,35.3111918,-120.8272589,"Sun-Thurs: 10 am-8 pm 
Fri-Sat: 10 am-10 pm "
https://beachhutdeli.com/locations/results/?state=ca,mission-viejo,26051 La Paz Rd Ste 180,Mission Viejo,CA,92691,US,37,(949) 583-1289,<MISSING>,33.5996992,-117.6755587,"Sun-Mon:  10 am-8 pm
Tues-Sat: 10 am-9 pm"
https://beachhutdeli.com/locations/results/?state=ca,morgan-hill,810 Tennant Station,Morgan Hill,CA,95037,US,35,(408) 779-0838,<MISSING>,37.1144682,-121.637898,"Mon-Sat: 10:30 am-8 pm
Sun: 11 am-7 pm 
"
https://beachhutdeli.com/locations/results/?state=ca,newport-beach,488 East 17th Street Ste. A-100,Newport Beach,CA,92627,US,31,(949) 336-0260,<MISSING>,33.6291071,-117.9108515,"Mon-Wed: 10 am-8 pm
Thurs.-Fri: 10 am-9 pm
Sat: 10 am-8 pm
Sun: 10 am-7 pm"
https://beachhutdeli.com/locations/results/?state=ca,now-open-mcclellan-park,5411 Luce Ave. Ste. 2,McClellan Park,CA,95652,US,54,916-333-5051,<MISSING>,38.6653848,-121.3936927,"Mon-Fri: 7 am-7 pm
Saturday & Sunday: Closed "
https://beachhutdeli.com/locations/results/?state=ca,oceanside,280 Mission Ave #105,Oceanside,CA,92054,US,46,760-529-9767,<MISSING>,33.1948313,-117.3815055,Mon-Sun: 9 am-9 pm
https://beachhutdeli.com/locations/results/?state=ca,penryn,2210 Taylor Road F,Penryn,CA,95663,US,48,916-259-2847,<MISSING>,38.8512623,-121.1672252,"Mon-Sat: 10 am-8 pm
Sun: 11 am- 7 pm"
https://beachhutdeli.com/locations/results/?state=ca,rocklin,6761 Stanford Ranch Rd Ste. D,Rocklin,CA,95677,US,14,(916) 781-SURF,<MISSING>,38.7799864,-121.2650398,"Mon-Sat: 10 am-8 pm 
Sun: 11 am-7 pm"
https://beachhutdeli.com/locations/results/?state=ca,rocklin-crossing,5406 Crossing Drive Ste. 101,Rocklin,CA,95677,US,39,(916) 824-1062,<MISSING>,38.8006988,-121.2043891,"Mon-Sat: 10 am-8 pm 
Sun: 11 am-7 pm"
https://beachhutdeli.com/locations/results/?state=ca,roseville,1490 Eureka Rd. #160,Roseville,CA,95661,US,03,(916) 780-3535,<MISSING>,38.751779,-121.2551257,"Mon-Sat: 10 am-8 pm
Sun: 10 am-7 pm"
https://beachhutdeli.com/locations/results/?state=ca,roseville-west,7456 Foothills Blvd. Ste 1,Roseville,CA,95747,US,08,(916) 784-1001,<MISSING>,38.7709971,-121.3143228,"Mon-Sat: 10 am-8 pm
Sun: 10 am-7 pm "
https://beachhutdeli.com/locations/results/?state=ca,east-sacramento,6601 Folsom Blvd. #100,Sacramento,CA,95819,US,44,(916) 346-4691,<MISSING>,38.554168,-121.426226,"Mon-Fri: 10 am-8 pm
Sat: 10 am-5 pm
Sun: 11 am-5 pm"
https://beachhutdeli.com/locations/results/?state=ca,sacramento-loehmanns-plaza,2535 Fair Oaks Blvd,Sacramento,CA,95825,US,01,(916) 971-DELI,<MISSING>,38.5743587,-121.4027729,"Mon-Sat: 10 am-8 pm
Sun: 11 am-6 pm"
https://beachhutdeli.com/locations/results/?state=ca,sacramento-mid-town,2406 J Street,Sacramento,CA,95816,US,04,(916) 442-1400,<MISSING>,38.5749425,-121.4742151,"Mon-Thurs: 10 am-8 pm
Fri: 10 am-10 pm
Sat: 10 am-8 pm
Sun: 11 am-7 pm"
https://beachhutdeli.com/locations/results/?state=ca,natomas,3620 North Freeway Blvd. Suite 315,Sacramento,CA,95834,US,12,(916) 575-7500,<MISSING>,38.6380373,-121.4980839,"Mon-Fri: 10 am-8 pm
Sat-Sun: 11 am-5 pm"
https://beachhutdeli.com/locations/results/?state=ca,san-diego-lane-field,900 Bayfront Ct. Ste 104,San Diego,CA,92101,US,43,(619) 501-3551,<MISSING>,32.717296,-117.171864,"Sun-Thurs: 6 am-9 pm
Fri-Sat: 6 am-10 pm"
https://beachhutdeli.com/locations/results/?state=ca,san-josecamden,2081 Camden Ave,San Jose,CA,95124,US,29,(408) 559-7873,<MISSING>,37.2628016,-121.935196,"Mon-Fri: 10:30 am-8 pm
Sat: 10:30 am- 7 pm
Sun: 11 am-7 pm
"
https://beachhutdeli.com/locations/results/?state=ca,san-josesilver-creek,"4878 San Felipe Rd, Ste 110",San Jose,CA,95135,US,24,(408) 238-8114,<MISSING>,37.3001,-121.7715267,"Mon-Fri: 10:30 am- 9 pm
Sat: 10:30 am-8 pm
Sun: 11 am-7 pm
"
https://beachhutdeli.com/locations/results/?state=ca,coming-soon-san-mateo,1798 S. Delaware St. ,San Mateo ,CA,94402,US,53,<MISSING>,<MISSING>,38.1486193,-122.387169,<MISSING>
https://beachhutdeli.com/locations/results/?state=ca,south-lake-tahoe,1072 Emerald Bay Rd.,South Lake Tahoe,CA,96150,US,17,(530) 541-SURF,<MISSING>,38.9110422,-120.0040748,"Mon-Fri: 10 am-7 pm
Sat-Sun: 10 am-6 pm"
https://beachhutdeli.com/locations/results/?state=ca,vacaville,2091 B-2 Harbison Drive,Vacaville,CA,95687,US,45,(707) 451-7644,<MISSING>,38.3619878,-121.9647799,"Sun-Wed: 10 am-8 pm
Thurs-Sat: 10 am-9 pm
"
https://beachhutdeli.com/locations/results/?state=ca,west-sacramento,767 Ikea Court Ste. 130,Sacramento,CA,95605,US,20,(916) 376-9110,<MISSING>,38.5892768,-121.5505892,"Mon-Fri: 10 am-8 pm
Sat-Sun: 11 am-5 pm"
https://beachhutdeli.com/locations/results/?state=ca,yuba-city,1655 Colusa Hwy #400,Yuba City,CA,95993,US,10,(530) 755-3887,<MISSING>,39.1427758,-121.6463028,"Mon-Sat: 10 am-8 pm
Sun: 11 am-7 pm"
https://beachhutdeli.com/locations/results/?state=nv,reno,5030 Las Brisas,Reno,NV,89523,US,09,(775)747-SURF,<MISSING>,39.5398103,-119.8630108,"Mon-Sat: 10 am-8 pm
Sun: 10 am-5 pm"
https://beachhutdeli.com/locations/results/?state=or,bend,852 NW Brooks St.,Bend,OR,97703,US,51,(541) 639-3115,<MISSING>,44.058988,-121.3146391,"Mon-Sat: 10 am-7 pm 
Sun: 10 am-6 pm
"
https://beachhutdeli.com/locations/results/?state=or,tigard,12436 SW Main St.,Tigard,OR,97223,US,49,503-718-7067,<MISSING>,45.4300884,-122.7736795,"Mon-Sat: 10 am-8 pm 
Sun: 10 am-7 pm "
https://beachhutdeli.com/locations/results/?state=tx,now-open-austin-tx,14900 Avery Ranch Blvd. ,Austin,TX,78717,US,55,(512) 614-4292,<MISSING>,30.4979532,-97.7757943,"Sun-Thurs: 10 am-8 pm
Fri-Sat: 10 am-9 pm"
